ORBCOMM FM115           
1 41186U 15081H   25222.49663144  .00000675  00000+0  16592-3 0  9998
2 41186  46.9980 141.2460 0001479 303.2793  56.7953 14.62577039515723
ORBCOMM FM108           
1 41187U 15081J   25222.23148889  .00000779  00000+0  20368-3 0  9996
2 41187  47.0035 211.7326 0002819 226.2500 133.8152 14.58226580514768
ORBCOMM FM117           
1 41188U 15081K   25222.40320463  .00000357  00000+0  11313-3 0  9998
2 41188  46.9997 209.6648 0003538 231.8932 128.1635 14.58224825514805
ORBCOMM FM116           
1 41189U 15081L   25221.70458429  .00000758  00000+0  19869-3 0  9994
2 41189  47.0029 302.7946 0001107  16.3257 343.7664 14.58308822513532
